STARLINK-36942          
1 68030U 26040R   26079.50001157 -.00987822  00000+0 -72025-2 0  9997
2 68030  97.2838  28.4986 0001456  98.6774  65.7350 15.75903694  4166
STARLINK-36913          
1 68031U 26040S   26079.50001157 -.00899587  00000+0 -65146-2 0  9994
2 68031  97.2841  28.5004 0001566  77.1692  91.2957 15.75814699  4169
STARLINK-36935          
1 68032U 26040T   26079.50001157 -.00354710  00000+0 -24560-2 0  9994
2 68032  97.2836  28.5140 0001147  93.4582 103.2522 15.75389043  4262
STARLINK-36947          
1 68033U 26040U   26079.50001157 -.00849046  00000+0 -61287-2 0  9993
2 68033  97.2844  28.5028 0001587  83.0826  89.4243 15.75751039  4163
STARLINK-36939          
1 68034U 26040V   26079.50001157 -.00475461  00000+0 -33244-2 0  9992
2 68034  97.2834  28.5112 0001658 103.4438  85.2150 15.75483152  4161
STARLINK-36943          
1 68035U 26040W   26079.50001157 -.00060008  00000+0 -40396-3 0  9997
2 68035  97.2860  28.5175 0001485  94.6027 100.1902 15.75207876  4218
STARLINK-36906          
1 68036U 26040X   26079.50001157 -.00587137  00000+0 -41484-2 0  9993
2 68036  97.2850  28.5100 0001692 101.2572  83.3695 15.75539231  4164
STARLINK-36388          
1 68037U 26040Y   26079.50001157 -.00387991  00000+0 -26934-2 0  9993
2 68037  97.2838  28.5134 0001064  89.0106 103.6783 15.75418119  4117
STARLINK-36895          
1 68038U 26040Z   26079.50001157 -.00784670  00000+0 -56482-2 0  9990
2 68038  97.2840  28.5050 0001774 107.4665  73.1190 15.75639614  4164
STARLINK-36373          
1 68039U 26040AA  26079.50001157 -.00721374  00000+0 -51472-2 0  9997
2 68039  97.2839  28.5035 0001501  85.3130  91.2377 15.75673083  4116
STARLINK-36711          
1 68040U 26041A   26079.36525993  .00220618  00000+0  14025-2 0  9999
2 68040  53.1594   8.8735 0000958 112.8993 247.2129 15.75298822  2900
STARLINK-36825          
1 68041U 26041B   26079.34385739  .00211404  00000+0  10450-2 0  9991
2 68041  53.1600   8.7300 0000859  91.2296 268.8825 15.80948091  2900
