CCSDS_OMM_VERS = 2.0
CREATION_DATE  = 
ORIGINATOR     = 

OBJECT_NAME    = STARLINK-36942
OBJECT_ID      = 2026-040R
CENTER_NAME    = EARTH
REF_FRAME      = TEME
TIME_SYSTEM    = UTC
MEAN_ELEMENT_THEORY = SGP/SGP4

EPOCH          = 2026-03-20T12:00:00.999648
MEAN_MOTION    = 15.75903694
ECCENTRICITY   = .00014568
INCLINATION    = 97.2838
RA_OF_ASC_NODE = 28.4986
ARG_OF_PERICENTER = 98.6774
MEAN_ANOMALY   = 65.7350

EPHEMERIS_TYPE = 0
CLASSIFICATION_TYPE = U
NORAD_CAT_ID   = 68030
ELEMENT_SET_NO = 999
REV_AT_EPOCH   = 416
BSTAR          = -.72024824E-2
MEAN_MOTION_DOT = -.987822E-2
MEAN_MOTION_DDOT = 0

CCSDS_OMM_VERS = 2.0
CREATION_DATE  = 
ORIGINATOR     = 

OBJECT_NAME    = STARLINK-36913
OBJECT_ID      = 2026-040S
CENTER_NAME    = EARTH
REF_FRAME      = TEME
TIME_SYSTEM    = UTC
MEAN_ELEMENT_THEORY = SGP/SGP4

EPOCH          = 2026-03-20T12:00:00.999648
MEAN_MOTION    = 15.75814699
ECCENTRICITY   = .00015662
INCLINATION    = 97.2841
RA_OF_ASC_NODE = 28.5004
ARG_OF_PERICENTER = 77.1692
MEAN_ANOMALY   = 91.2957

EPHEMERIS_TYPE = 0
CLASSIFICATION_TYPE = U
NORAD_CAT_ID   = 68031
ELEMENT_SET_NO = 999
REV_AT_EPOCH   = 416
BSTAR          = -.65145919E-2
MEAN_MOTION_DOT = -.899587E-2
MEAN_MOTION_DDOT = 0

CCSDS_OMM_VERS = 2.0
CREATION_DATE  = 
ORIGINATOR     = 

OBJECT_NAME    = STARLINK-36935
OBJECT_ID      = 2026-040T
CENTER_NAME    = EARTH
REF_FRAME      = TEME
TIME_SYSTEM    = UTC
MEAN_ELEMENT_THEORY = SGP/SGP4

EPOCH          = 2026-03-20T12:00:00.999648
MEAN_MOTION    = 15.75389043
ECCENTRICITY   = .00011474
INCLINATION    = 97.2836
RA_OF_ASC_NODE = 28.5140
ARG_OF_PERICENTER = 93.4582
MEAN_ANOMALY   = 103.2522

EPHEMERIS_TYPE = 0
CLASSIFICATION_TYPE = U
NORAD_CAT_ID   = 68032
ELEMENT_SET_NO = 999
REV_AT_EPOCH   = 426
BSTAR          = -.24559501E-2
MEAN_MOTION_DOT = -.35471E-2
MEAN_MOTION_DDOT = 0

CCSDS_OMM_VERS = 2.0
CREATION_DATE  = 
ORIGINATOR     = 

OBJECT_NAME    = STARLINK-36947
OBJECT_ID      = 2026-040U
CENTER_NAME    = EARTH
REF_FRAME      = TEME
TIME_SYSTEM    = UTC
MEAN_ELEMENT_THEORY = SGP/SGP4

EPOCH          = 2026-03-20T12:00:00.999648
MEAN_MOTION    = 15.75751039
ECCENTRICITY   = .00015878
INCLINATION    = 97.2844
RA_OF_ASC_NODE = 28.5028
ARG_OF_PERICENTER = 83.0826
MEAN_ANOMALY   = 89.4243

EPHEMERIS_TYPE = 0
CLASSIFICATION_TYPE = U
NORAD_CAT_ID   = 68033
ELEMENT_SET_NO = 999
REV_AT_EPOCH   = 416
BSTAR          = -.61286847E-2
MEAN_MOTION_DOT = -.849046E-2
MEAN_MOTION_DDOT = 0

CCSDS_OMM_VERS = 2.0
CREATION_DATE  = 
ORIGINATOR     = 

OBJECT_NAME    = STARLINK-36939
OBJECT_ID      = 2026-040V
CENTER_NAME    = EARTH
REF_FRAME      = TEME
TIME_SYSTEM    = UTC
MEAN_ELEMENT_THEORY = SGP/SGP4

EPOCH          = 2026-03-20T12:00:00.999648
MEAN_MOTION    = 15.75483152
ECCENTRICITY   = .00016586
INCLINATION    = 97.2834
RA_OF_ASC_NODE = 28.5112
ARG_OF_PERICENTER = 103.4438
MEAN_ANOMALY   = 85.2150

EPHEMERIS_TYPE = 0
CLASSIFICATION_TYPE = U
NORAD_CAT_ID   = 68034
ELEMENT_SET_NO = 999
REV_AT_EPOCH   = 416
BSTAR          = -.33243963E-2
MEAN_MOTION_DOT = -.475461E-2
MEAN_MOTION_DDOT = 0

CCSDS_OMM_VERS = 2.0
CREATION_DATE  = 
ORIGINATOR     = 

OBJECT_NAME    = STARLINK-36943
OBJECT_ID      = 2026-040W
CENTER_NAME    = EARTH
REF_FRAME      = TEME
TIME_SYSTEM    = UTC
MEAN_ELEMENT_THEORY = SGP/SGP4

EPOCH          = 2026-03-20T12:00:00.999648
MEAN_MOTION    = 15.75207876
ECCENTRICITY   = .00014858
INCLINATION    = 97.2860
RA_OF_ASC_NODE = 28.5175
ARG_OF_PERICENTER = 94.6027
MEAN_ANOMALY   = 100.1902

EPHEMERIS_TYPE = 0
CLASSIFICATION_TYPE = U
NORAD_CAT_ID   = 68035
ELEMENT_SET_NO = 999
REV_AT_EPOCH   = 421
BSTAR          = -.40395597E-3
MEAN_MOTION_DOT = -.60008E-3
MEAN_MOTION_DDOT = 0

CCSDS_OMM_VERS = 2.0
CREATION_DATE  = 
ORIGINATOR     = 

OBJECT_NAME    = STARLINK-36906
OBJECT_ID      = 2026-040X
CENTER_NAME    = EARTH
REF_FRAME      = TEME
TIME_SYSTEM    = UTC
MEAN_ELEMENT_THEORY = SGP/SGP4

EPOCH          = 2026-03-20T12:00:00.999648
MEAN_MOTION    = 15.75539231
ECCENTRICITY   = .0001692
INCLINATION    = 97.2850
RA_OF_ASC_NODE = 28.5100
ARG_OF_PERICENTER = 101.2572
MEAN_ANOMALY   = 83.3695

EPHEMERIS_TYPE = 0
CLASSIFICATION_TYPE = U
NORAD_CAT_ID   = 68036
ELEMENT_SET_NO = 999
REV_AT_EPOCH   = 416
BSTAR          = -.41484232E-2
MEAN_MOTION_DOT = -.587137E-2
MEAN_MOTION_DDOT = 0

CCSDS_OMM_VERS = 2.0
CREATION_DATE  = 
ORIGINATOR     = 

OBJECT_NAME    = STARLINK-36388
OBJECT_ID      = 2026-040Y
CENTER_NAME    = EARTH
REF_FRAME      = TEME
TIME_SYSTEM    = UTC
MEAN_ELEMENT_THEORY = SGP/SGP4

EPOCH          = 2026-03-20T12:00:00.999648
MEAN_MOTION    = 15.75418119
ECCENTRICITY   = .00010647
INCLINATION    = 97.2838
RA_OF_ASC_NODE = 28.5134
ARG_OF_PERICENTER = 89.0106
MEAN_ANOMALY   = 103.6783

EPHEMERIS_TYPE = 0
CLASSIFICATION_TYPE = U
NORAD_CAT_ID   = 68037
ELEMENT_SET_NO = 999
REV_AT_EPOCH   = 411
BSTAR          = -.26934387E-2
MEAN_MOTION_DOT = -.387991E-2
MEAN_MOTION_DDOT = 0

CCSDS_OMM_VERS = 2.0
CREATION_DATE  = 
ORIGINATOR     = 

OBJECT_NAME    = STARLINK-36895
OBJECT_ID      = 2026-040Z
CENTER_NAME    = EARTH
REF_FRAME      = TEME
TIME_SYSTEM    = UTC
MEAN_ELEMENT_THEORY = SGP/SGP4

EPOCH          = 2026-03-20T12:00:00.999648
MEAN_MOTION    = 15.75639614
ECCENTRICITY   = .00017747
INCLINATION    = 97.2840
RA_OF_ASC_NODE = 28.5050
ARG_OF_PERICENTER = 107.4665
MEAN_ANOMALY   = 73.1190

EPHEMERIS_TYPE = 0
CLASSIFICATION_TYPE = U
NORAD_CAT_ID   = 68038
ELEMENT_SET_NO = 999
REV_AT_EPOCH   = 416
BSTAR          = -.56481863E-2
MEAN_MOTION_DOT = -.78467E-2
MEAN_MOTION_DDOT = 0

CCSDS_OMM_VERS = 2.0
CREATION_DATE  = 
ORIGINATOR     = 

OBJECT_NAME    = STARLINK-36373
OBJECT_ID      = 2026-040AA
CENTER_NAME    = EARTH
REF_FRAME      = TEME
TIME_SYSTEM    = UTC
MEAN_ELEMENT_THEORY = SGP/SGP4

EPOCH          = 2026-03-20T12:00:00.999648
MEAN_MOTION    = 15.75673083
ECCENTRICITY   = .00015012
INCLINATION    = 97.2839
RA_OF_ASC_NODE = 28.5035
ARG_OF_PERICENTER = 85.3130
MEAN_ANOMALY   = 91.2377

EPHEMERIS_TYPE = 0
CLASSIFICATION_TYPE = U
NORAD_CAT_ID   = 68039
ELEMENT_SET_NO = 999
REV_AT_EPOCH   = 411
BSTAR          = -.51471703E-2
MEAN_MOTION_DOT = -.721374E-2
MEAN_MOTION_DDOT = 0

CCSDS_OMM_VERS = 2.0
CREATION_DATE  = 
ORIGINATOR     = 

OBJECT_NAME    = STARLINK-36711
OBJECT_ID      = 2026-041A
CENTER_NAME    = EARTH
REF_FRAME      = TEME
TIME_SYSTEM    = UTC
MEAN_ELEMENT_THEORY = SGP/SGP4

EPOCH          = 2026-03-20T08:45:58.457952
MEAN_MOTION    = 15.75298822
ECCENTRICITY   = .00009581
INCLINATION    = 53.1594
RA_OF_ASC_NODE = 8.8735
ARG_OF_PERICENTER = 112.8993
MEAN_ANOMALY   = 247.2129

EPHEMERIS_TYPE = 0
CLASSIFICATION_TYPE = U
NORAD_CAT_ID   = 68040
ELEMENT_SET_NO = 999
REV_AT_EPOCH   = 290
BSTAR          = .14024707E-2
MEAN_MOTION_DOT = .220618E-2
MEAN_MOTION_DDOT = 0

CCSDS_OMM_VERS = 2.0
CREATION_DATE  = 
ORIGINATOR     = 

OBJECT_NAME    = STARLINK-36825
OBJECT_ID      = 2026-041B
CENTER_NAME    = EARTH
REF_FRAME      = TEME
TIME_SYSTEM    = UTC
MEAN_ELEMENT_THEORY = SGP/SGP4

EPOCH          = 2026-03-20T08:15:09.278496
MEAN_MOTION    = 15.80948091
ECCENTRICITY   = .00008592
INCLINATION    = 53.1600
RA_OF_ASC_NODE = 8.7300
ARG_OF_PERICENTER = 91.2296
MEAN_ANOMALY   = 268.8825

EPHEMERIS_TYPE = 0
CLASSIFICATION_TYPE = U
NORAD_CAT_ID   = 68041
ELEMENT_SET_NO = 999
REV_AT_EPOCH   = 290
BSTAR          = .10449785E-2
MEAN_MOTION_DOT = .211404E-2
MEAN_MOTION_DDOT = 0

